{"type": "FeatureCollection", "features": [ {"type": "Feature", "properties": {"norad_id": 36402, "name": "COSMOS 2460 (732)", "group": "gnss", "lat": -14.672188951233755, "lon": -45.768121323490796, "alt_km": 19129.98648934409, "timestamp": "2025-12-03T10:52:57.692809+00:00", "meta": {"OBJECT_NAME": "COSMOS 2460 (732)", "OBJECT_ID": "2010-007C", "EPOCH": "2025-12-01T05:49:09.827040", "MEAN_MOTION": 2.13106053, "ECCENTRICITY": 0.00028009, "INCLINATION": 65.536, "RA_OF_ASC_NODE": 321.162, "ARG_OF_PERICENTER": 269.9918, "MEAN_ANOMALY": 177.6167, "EPHEMERIS_TYPE": 0, "CLASSIFICATION_TYPE": "U", "NORAD_CAT_ID": 36402, "ELEMENT_SET_NO": 999, "REV_AT_EPOCH": 12251, "BSTAR": 0, "MEAN_MOTION_DOT": -2.6e-07, "MEAN_MOTION_DDOT": 0}, "tle": {"line1": "1 36402U 10007C   25335.24247485 -.00000026  00000+0  00000+0 0  9994", "line2": "2 36402  65.5360 321.1620 0002800 269.9918 177.6167  2.13106053122518"}}, "geometry": {"type": "Point", "coordinates": [-45.768121323490796, -14.672188951233755]}}, {"type": "Feature", "properties": {"norad_id": 36585, "name": "GPS BIIF-1  (PRN 25)", "group": "gnss", "lat": -33.237264624837294, "lon": -171.62365807427872, "alt_km": 20283.09530492036, "timestamp": "2025-12-03T10:52:57.692821+00:00", "meta": {"OBJECT_NAME": "GPS BIIF-1  (PRN 25)", "OBJECT_ID": "2010-022A", "EPOCH": "2025-12-02T06:20:52.766304", "MEAN_MOTION": 2.00552564, "ECCENTRICITY": 0.0125665, "INCLINATION": 54.3023, "RA_OF_ASC_NODE": 216.4964, "ARG_OF_PERICENTER": 64.9581, "MEAN_ANOMALY": 115.6293, "EPHEMERIS_TYPE": 0, "CLASSIFICATION_TYPE": "U", "NORAD_CAT_ID": 36585, "ELEMENT_SET_NO": 999, "REV_AT_EPOCH": 11364, "BSTAR": 0, "MEAN_MOTION_DOT": 6.7e-07, "MEAN_MOTION_DDOT": 0}, "tle": {"line1": "1 36585U 10022A   25336.26449961  .00000067  00000+0  00000+0 0  9993", "line2": "2 36585  54.3023 216.4964 0125665  64.9581 115.6293  2.00552564113647"}}, "geometry": {"type": "Point", "coordinates": [-171.62365807427872, -33.237264624837294]}}, {"type": "Feature", "properties": {"norad_id": 36828, "name": "BEIDOU-2 IGSO-1 (C06)", "group": "gnss", "lat": 1.2906203815058883, "lon": -16.200071457139504, "alt_km": 35612.74929676616, "timestamp": "2025-12-03T10:52:57.692834+00:00", "meta": {"OBJECT_NAME": "BEIDOU-2 IGSO-1 (C06)", "OBJECT_ID": "2010-036A", "EPOCH": "2025-12-02T23:10:21.569952", "MEAN_MOTION": 1.00278743, "ECCENTRICITY": 0.0051275, "INCLINATION": 54.2836, "RA_OF_ASC_NODE": 164.7371, "ARG_OF_PERICENTER": 215.7816, "MEAN_ANOMALY": 146.8764, "EPHEMERIS_TYPE": 0, "CLASSIFICATION_TYPE": "U", "NORAD_CAT_ID": 36828, "ELEMENT_SET_NO": 999, "REV_AT_EPOCH": 5613, "BSTAR": 0, "MEAN_MOTION_DOT": -2e-07, "MEAN_MOTION_DDOT": 0}, "tle": {"line1": "1 36828U 10036A   25336.96552743 -.00000020  00000+0  00000+0 0  9998", "line2": "2 36828  54.2836 164.7371 0051275 215.7816 146.8764  1.00278743 56139"}}, "geometry": {"type": "Point", "coordinates": [-16.200071457139504, 1.2906203815058883]}}, {"type": "Feature", "properties": {"norad_id": 37210, "name": "BEIDOU-2 G4 (C04)", "group": "gnss", "lat": -1.7437641694588488, "lon": 35.95616323391739, "alt_km": 35820.57735886896, "timestamp": "2025-12-03T10:52:57.692846+00:00", "meta": {"OBJECT_NAME": "BEIDOU-2 G4 (C04)", "OBJECT_ID": "2010-057A", "EPOCH": "2025-12-03T04:14:41.515296", "MEAN_MOTION": 1.00271337, "ECCENTRICITY": 0.001089, "INCLINATION": 3.159, "RA_OF_ASC_NODE": 69.9613, "ARG_OF_PERICENTER": 188.3007, "MEAN_ANOMALY": 37.7516, "EPHEMERIS_TYPE": 0, "CLASSIFICATION_TYPE": "U", "NORAD_CAT_ID": 37210, "ELEMENT_SET_NO": 999, "REV_AT_EPOCH": 5532, "BSTAR": 0, "MEAN_MOTION_DOT": -9.4e-07, "MEAN_MOTION_DDOT": 0}, "tle": {"line1": "1 37210U 10057A   25337.17686939 -.00000094  00000+0  00000+0 0  9997", "line2": "2 37210   3.1590  69.9613 0010890 188.3007  37.7516  1.00271337 55320"}}, "geometry": {"type": "Point", "coordinates": [35.95616323391739, -1.7437641694588488]}}, {"type": "Feature", "properties": {"norad_id": 37256, "name": "BEIDOU-2 IGSO-2 (C07)", "group": "gnss", "lat": 43.66388093017502, "lon": -26.342581880384998, "alt_km": 35951.231790453225, "timestamp": "2025-12-03T10:52:57.692858+00:00", "meta": {"OBJECT_NAME": "BEIDOU-2 IGSO-2 (C07)", "OBJECT_ID": "2010-068A", "EPOCH": "2025-12-02T18:32:21.656832", "MEAN_MOTION": 1.00289076, "ECCENTRICITY": 0.0049278, "INCLINATION": 47.9063, "RA_OF_ASC_NODE": 274.2734, "ARG_OF_PERICENTER": 216.2016, "MEAN_ANOMALY": 326.6202, "EPHEMERIS_TYPE": 0, "CLASSIFICATION_TYPE": "U", "NORAD_CAT_ID": 37256, "ELEMENT_SET_NO": 999, "REV_AT_EPOCH": 5482, "BSTAR": 0, "MEAN_MOTION_DOT": -2.27e-06, "MEAN_MOTION_DDOT": 0}, "tle": {"line1": "1 37256U 10068A   25336.77247288 -.00000227  00000+0  00000+0 0  9992", "line2": "2 37256  47.9063 274.2734 0049278 216.2016 326.6202  1.00289076 54824"}}, "geometry": {"type": "Point", "coordinates": [-26.342581880384998, 43.66388093017502]}}, {"type": "Feature", "properties": {"norad_id": 37384, "name": "BEIDOU-2 IGSO-3 (C08)", "group": "gnss", "lat": -48.72971316702464, "lon": 5.052309936433634, "alt_km": 35856.546927850904, "timestamp": "2025-12-03T10:52:57.692871+00:00", "meta": {"OBJECT_NAME": "BEIDOU-2 IGSO-3 (C08)", "OBJECT_ID": "2011-013A", "EPOCH": "2025-11-29T21:04:05.094336", "MEAN_MOTION": 1.00273417, "ECCENTRICITY": 0.00356655, "INCLINATION": 62.1255, "RA_OF_ASC_NODE": 42.0418, "ARG_OF_PERICENTER": 186.0158, "MEAN_ANOMALY": 264.7363, "EPHEMERIS_TYPE": 0, "CLASSIFICATION_TYPE": "U", "NORAD_CAT_ID": 37384, "ELEMENT_SET_NO": 999, "REV_AT_EPOCH": 5366, "BSTAR": 0, "MEAN_MOTION_DOT": -1.94e-06, "MEAN_MOTION_DDOT": 0}, "tle": {"line1": "1 37384U 11013A   25333.87783674 -.00000194  00000+0  00000+0 0  9990", "line2": "2 37384  62.1255  42.0418 0035665 186.0158 264.7363  1.00273417 53667"}}, "geometry": {"type": "Point", "coordinates": [5.052309936433634, -48.72971316702464]}}, {"type": "Feature", "properties": {"norad_id": 37605, "name": "GSAT-8 (GAGAN/PRN 127)", "group": "gnss", "lat": -0.7399647170050018, "lon": -69.115823638173, "alt_km": 35752.7259762378, "timestamp": "2025-12-03T10:52:57.692885+00:00", "meta": {"OBJECT_NAME": "GSAT-8 (GAGAN/PRN 127)", "OBJECT_ID": "2011-022A", "EPOCH": "2025-12-03T02:01:57.855360", "MEAN_MOTION": 1.00272588, "ECCENTRICITY": 0.0009, "INCLINATION": 1.6227, "RA_OF_ASC_NODE": 84.2958, "ARG_OF_PERICENTER": 177.2344, "MEAN_ANOMALY": 256.2206, "EPHEMERIS_TYPE": 0, "CLASSIFICATION_TYPE": "U", "NORAD_CAT_ID": 37605, "ELEMENT_SET_NO": 999, "REV_AT_EPOCH": 5125, "BSTAR": 0, "MEAN_MOTION_DOT": 1.03e-06, "MEAN_MOTION_DDOT": 0}, "tle": {"line1": "1 37605U 11022A   25337.08469740  .00000103  00000+0  00000+0 0  9997", "line2": "2 37605   1.6227  84.2958 0009000 177.2344 256.2206  1.00272588 51253"}}, "geometry": {"type": "Point", "coordinates": [-69.115823638173, -0.7399647170050018]}}, {"type": "Feature", "properties": {"norad_id": 37763, "name": "BEIDOU-2 IGSO-4 (C09)", "group": "gnss", "lat": 15.541977570742327, "lon": -24.002509100044726, "alt_km": 35553.57422049989, "timestamp": "2025-12-03T10:52:57.692898+00:00", "meta": {"OBJECT_NAME": "BEIDOU-2 IGSO-4 (C09)", "OBJECT_ID": "2011-038A", "EPOCH": "2025-12-01T12:32:09.960864", "MEAN_MOTION": 1.00284074, "ECCENTRICITY": 0.0148781, "INCLINATION": 54.5808, "RA_OF_ASC_NODE": 167.4476, "ARG_OF_PERICENTER": 230.2031, "MEAN_ANOMALY": 315.0387, "EPHEMERIS_TYPE": 0, "CLASSIFICATION_TYPE": "U", "NORAD_CAT_ID": 37763, "ELEMENT_SET_NO": 999, "REV_AT_EPOCH": 5266, "BSTAR": 0, "MEAN_MOTION_DOT": 1.01e-06, "MEAN_MOTION_DDOT": 0}, "tle": {"line1": "1 37763U 11038A   25335.52233751  .00000101  00000+0  00000+0 0  9995", "line2": "2 37763  54.5808 167.4476 0148781 230.2031 315.0387  1.00284074 52665"}}, "geometry": {"type": "Point", "coordinates": [-24.002509100044726, 15.541977570742327]}}, {"type": "Feature", "properties": {"norad_id": 37846, "name": "GSAT0101 (GALILEO-PFM)", "group": "gnss", "lat": -31.201585750664663, "lon": -36.05140103908399, "alt_km": 23218.045577865432, "timestamp": "2025-12-03T10:52:57.692912+00:00", "meta": {"OBJECT_NAME": "GSAT0101 (GALILEO-PFM)", "OBJECT_ID": "2011-060A", "EPOCH": "2025-12-01T04:03:41.055552", "MEAN_MOTION": 1.70475524, "ECCENTRICITY": 0.00027506, "INCLINATION": 57.0554, "RA_OF_ASC_NODE": 347.1343, "ARG_OF_PERICENTER": 309.7017, "MEAN_ANOMALY": 50.3167, "EPHEMERIS_TYPE": 0, "CLASSIFICATION_TYPE": "U", "NORAD_CAT_ID": 37846, "ELEMENT_SET_NO": 999, "REV_AT_EPOCH": 8774, "BSTAR": 0, "MEAN_MOTION_DOT": -5.9e-07, "MEAN_MOTION_DDOT": 0}, "tle": {"line1": "1 37846U 11060A   25335.16922518 -.00000059  00000+0  00000+0 0  9991", "line2": "2 37846  57.0554 347.1343 0002750 309.7017  50.3167  1.70475524 87745"}}, "geometry": {"type": "Point", "coordinates": [-36.05140103908399, -31.201585750664663]}}, {"type": "Feature", "properties": {"norad_id": 37847, "name": "GSAT0102 (GALILEO-FM2)", "group": "gnss", "lat": 6.173993979527785, "lon": -8.897358778801545, "alt_km": 23214.746774856496, "timestamp": "2025-12-03T10:52:57.692923+00:00", "meta": {"OBJECT_NAME": "GSAT0102 (GALILEO-FM2)", "OBJECT_ID": "2011-060B", "EPOCH": "2025-12-02T06:27:38.704608", "MEAN_MOTION": 1.70475743, "ECCENTRICITY": 0.00047518, "INCLINATION": 57.0559, "RA_OF_ASC_NODE": 347.1049, "ARG_OF_PERICENTER": 306.1199, "MEAN_ANOMALY": 54.4344, "EPHEMERIS_TYPE": 0, "CLASSIFICATION_TYPE": "U", "NORAD_CAT_ID": 37847, "ELEMENT_SET_NO": 999, "REV_AT_EPOCH": 8777, "BSTAR": 0, "MEAN_MOTION_DOT": -6.2e-07, "MEAN_MOTION_DDOT": 0}, "tle": {"line1": "1 37847U 11060B   25336.26919797 -.00000062  00000+0  00000+0 0  9993", "line2": "2 37847  57.0559 347.1049 0004751 306.1199  54.4344  1.70475743 87777"}}, "geometry": {"type": "Point", "coordinates": [-8.897358778801545, 6.173993979527785]}}]}